{"type": "FeatureCollection", "features": [ {"type": "Feature", "properties": {"norad_id": 34001, "name": "COSMOS 2251 DEB", "group": "cosmos-2251-debris", "lat": -1.8549887401649496, "lon": -66.98448124279146, "alt_km": 757.6593944568176, "timestamp": "2025-12-06T05:40:09.638761+00:00", "meta": {"OBJECT_NAME": "COSMOS 2251 DEB", "OBJECT_ID": "1993-036GL", "EPOCH": "2025-12-05T06:51:10.177344", "MEAN_MOTION": 14.3708295, "ECCENTRICITY": 0.00196081, "INCLINATION": 74.0384, "RA_OF_ASC_NODE": 295.294, "ARG_OF_PERICENTER": 18.084, "MEAN_ANOMALY": 103.7637, "EPHEMERIS_TYPE": 0, "CLASSIFICATION_TYPE": "U", "NORAD_CAT_ID": 34001, "ELEMENT_SET_NO": 999, "REV_AT_EPOCH": 88039, "BSTAR": 0.00038555748, "MEAN_MOTION_DOT": 1.121e-05, "MEAN_MOTION_DDOT": 0}, "tle": {"line1": "1 34001U 93036GL  25339.28553446  .00001121  00000+0  38556-3 0  9992", "line2": "2 34001  74.0384 295.2940 0019608  18.0840 103.7637 14.37082950880396"}}, "geometry": {"type": "Point", "coordinates": [-66.98448124279146, -1.8549887401649496]}}, {"type": "Feature", "properties": {"norad_id": 34003, "name": "COSMOS 2251 DEB", "group": "cosmos-2251-debris", "lat": 42.170603128926814, "lon": -48.92530649232189, "alt_km": 745.7809325123008, "timestamp": "2025-12-06T05:40:09.638771+00:00", "meta": {"OBJECT_NAME": "COSMOS 2251 DEB", "OBJECT_ID": "1993-036GN", "EPOCH": "2025-12-05T06:54:57.136320", "MEAN_MOTION": 13.84083935, "ECCENTRICITY": 0.02737403, "INCLINATION": 74.0783, "RA_OF_ASC_NODE": 297.6851, "ARG_OF_PERICENTER": 51.4486, "MEAN_ANOMALY": 311.0828, "EPHEMERIS_TYPE": 0, "CLASSIFICATION_TYPE": "U", "NORAD_CAT_ID": 34003, "ELEMENT_SET_NO": 999, "REV_AT_EPOCH": 84322, "BSTAR": 0.0033221618, "MEAN_MOTION_DOT": 4.923e-05, "MEAN_MOTION_DDOT": 0}, "tle": {"line1": "1 34003U 93036GN  25339.28816130  .00004923  00000+0  33222-2 0  9993", "line2": "2 34003  74.0783 297.6851 0273740  51.4486 311.0828 13.84083935843226"}}, "geometry": {"type": "Point", "coordinates": [-48.92530649232189, 42.170603128926814]}}, {"type": "Feature", "properties": {"norad_id": 34004, "name": "COSMOS 2251 DEB", "group": "cosmos-2251-debris", "lat": -32.08354884143061, "lon": -45.032622975442244, "alt_km": 711.8971546644243, "timestamp": "2025-12-06T05:40:09.638781+00:00", "meta": {"OBJECT_NAME": "COSMOS 2251 DEB", "OBJECT_ID": "1993-036GP", "EPOCH": "2025-12-04T00:47:42.970272", "MEAN_MOTION": 14.48867664, "ECCENTRICITY": 0.0033078, "INCLINATION": 74.0351, "RA_OF_ASC_NODE": 329.434, "ARG_OF_PERICENTER": 342.8249, "MEAN_ANOMALY": 17.1788, "EPHEMERIS_TYPE": 0, "CLASSIFICATION_TYPE": "U", "NORAD_CAT_ID": 34004, "ELEMENT_SET_NO": 999, "REV_AT_EPOCH": 87904, "BSTAR": 0.0027329388, "MEAN_MOTION_DOT": 0.00010395, "MEAN_MOTION_DDOT": 0}, "tle": {"line1": "1 34004U 93036GP  25338.03313623  .00010395  00000+0  27329-2 0  9996", "line2": "2 34004  74.0351 329.4340 0033078 342.8249  17.1788 14.48867664879045"}}, "geometry": {"type": "Point", "coordinates": [-45.032622975442244, -32.08354884143061]}}, {"type": "Feature", "properties": {"norad_id": 34005, "name": "COSMOS 2251 DEB", "group": "cosmos-2251-debris", "lat": 72.614839146424, "lon": -68.31393408847461, "alt_km": 752.2146330384676, "timestamp": "2025-12-06T05:40:09.638791+00:00", "meta": {"OBJECT_NAME": "COSMOS 2251 DEB", "OBJECT_ID": "1993-036GQ", "EPOCH": "2025-12-05T03:09:13.359168", "MEAN_MOTION": 14.40295917, "ECCENTRICITY": 0.00205518, "INCLINATION": 74.0451, "RA_OF_ASC_NODE": 227.7034, "ARG_OF_PERICENTER": 347.2897, "MEAN_ANOMALY": 129.2733, "EPHEMERIS_TYPE": 0, "CLASSIFICATION_TYPE": "U", "NORAD_CAT_ID": 34005, "ELEMENT_SET_NO": 999, "REV_AT_EPOCH": 88269, "BSTAR": 0.00022285746, "MEAN_MOTION_DOT": 6.81e-06, "MEAN_MOTION_DDOT": 0}, "tle": {"line1": "1 34005U 93036GQ  25339.13140462  .00000681  00000+0  22286-3 0  9993", "line2": "2 34005  74.0451 227.7034 0020551 347.2897 129.2733 14.40295917882695"}}, "geometry": {"type": "Point", "coordinates": [-68.31393408847461, 72.614839146424]}}, {"type": "Feature", "properties": {"norad_id": 34006, "name": "COSMOS 2251 DEB", "group": "cosmos-2251-debris", "lat": 16.166433489335212, "lon": -28.378868088879674, "alt_km": 580.3663955619604, "timestamp": "2025-12-06T05:40:09.638802+00:00", "meta": {"OBJECT_NAME": "COSMOS 2251 DEB", "OBJECT_ID": "1993-036GR", "EPOCH": "2025-12-04T14:39:52.591968", "MEAN_MOTION": 14.93859238, "ECCENTRICITY": 0.0012083, "INCLINATION": 74.0532, "RA_OF_ASC_NODE": 159.643, "ARG_OF_PERICENTER": 115.1728, "MEAN_ANOMALY": 310.7171, "EPHEMERIS_TYPE": 0, "CLASSIFICATION_TYPE": "U", "NORAD_CAT_ID": 34006, "ELEMENT_SET_NO": 999, "REV_AT_EPOCH": 88547, "BSTAR": 0.0062185, "MEAN_MOTION_DOT": 0.00066767, "MEAN_MOTION_DDOT": 0}, "tle": {"line1": "1 34006U 93036GR  25338.61102537  .00066767  00000+0  62185-2 0  9995", "line2": "2 34006  74.0532 159.6430 0012083 115.1728 310.7171 14.93859238885477"}}, "geometry": {"type": "Point", "coordinates": [-28.378868088879674, 16.166433489335212]}}, {"type": "Feature", "properties": {"norad_id": 34007, "name": "COSMOS 2251 DEB", "group": "cosmos-2251-debris", "lat": 66.93689785526061, "lon": 41.718921159306724, "alt_km": 656.8092745831937, "timestamp": "2025-12-06T05:40:09.638813+00:00", "meta": {"OBJECT_NAME": "COSMOS 2251 DEB", "OBJECT_ID": "1993-036GS", "EPOCH": "2025-12-05T03:06:30.740544", "MEAN_MOTION": 14.64705069, "ECCENTRICITY": 0.00446768, "INCLINATION": 74.0196, "RA_OF_ASC_NODE": 1.5455, "ARG_OF_PERICENTER": 138.8829, "MEAN_ANOMALY": 221.5721, "EPHEMERIS_TYPE": 0, "CLASSIFICATION_TYPE": "U", "NORAD_CAT_ID": 34007, "ELEMENT_SET_NO": 999, "REV_AT_EPOCH": 88968, "BSTAR": 0.001468398, "MEAN_MOTION_DOT": 7.91e-05, "MEAN_MOTION_DDOT": 0}, "tle": {"line1": "1 34007U 93036GS  25339.12952246  .00007910  00000+0  14684-2 0  9999", "line2": "2 34007  74.0196   1.5455 0044676 138.8829 221.5721 14.64705069889680"}}, "geometry": {"type": "Point", "coordinates": [41.718921159306724, 66.93689785526061]}}, {"type": "Feature", "properties": {"norad_id": 34008, "name": "COSMOS 2251 DEB", "group": "cosmos-2251-debris", "lat": 21.910185646954275, "lon": 155.79362142137276, "alt_km": 797.8511577428835, "timestamp": "2025-12-06T05:40:09.638823+00:00", "meta": {"OBJECT_NAME": "COSMOS 2251 DEB", "OBJECT_ID": "1993-036GT", "EPOCH": "2025-12-05T04:09:31.913856", "MEAN_MOTION": 14.3313793, "ECCENTRICITY": 0.00240407, "INCLINATION": 74.0342, "RA_OF_ASC_NODE": 344.3473, "ARG_OF_PERICENTER": 341.039, "MEAN_ANOMALY": 94.2031, "EPHEMERIS_TYPE": 0, "CLASSIFICATION_TYPE": "U", "NORAD_CAT_ID": 34008, "ELEMENT_SET_NO": 999, "REV_AT_EPOCH": 87856, "BSTAR": 0.00021432921, "MEAN_MOTION_DOT": 5.64e-06, "MEAN_MOTION_DDOT": 0}, "tle": {"line1": "1 34008U 93036GT  25339.17328604  .00000564  00000+0  21433-3 0  9999", "line2": "2 34008  74.0342 344.3473 0024040 341.0390  94.2031 14.33137930878562"}}, "geometry": {"type": "Point", "coordinates": [155.79362142137276, 21.910185646954275]}}, {"type": "Feature", "properties": {"norad_id": 34009, "name": "COSMOS 2251 DEB", "group": "cosmos-2251-debris", "lat": -11.13344928000718, "lon": 172.05230455908136, "alt_km": 797.229327345246, "timestamp": "2025-12-06T05:40:09.638833+00:00", "meta": {"OBJECT_NAME": "COSMOS 2251 DEB", "OBJECT_ID": "1993-036GU", "EPOCH": "2025-12-05T03:58:47.620416", "MEAN_MOTION": 14.33213252, "ECCENTRICITY": 0.00262958, "INCLINATION": 74.0372, "RA_OF_ASC_NODE": 350.7784, "ARG_OF_PERICENTER": 62.839, "MEAN_ANOMALY": 7.8481, "EPHEMERIS_TYPE": 0, "CLASSIFICATION_TYPE": "U", "NORAD_CAT_ID": 34009, "ELEMENT_SET_NO": 999, "REV_AT_EPOCH": 87837, "BSTAR": 0.00025159561, "MEAN_MOTION_DOT": 6.68e-06, "MEAN_MOTION_DDOT": 0}, "tle": {"line1": "1 34009U 93036GU  25339.16582894  .00000668  00000+0  25160-3 0  9998", "line2": "2 34009  74.0372 350.7784 0026295  62.8390   7.8481 14.33213252878374"}}, "geometry": {"type": "Point", "coordinates": [172.05230455908136, -11.13344928000718]}}, {"type": "Feature", "properties": {"norad_id": 34010, "name": "COSMOS 2251 DEB", "group": "cosmos-2251-debris", "lat": -60.637640535215546, "lon": 147.5920194439166, "alt_km": 524.7586550251499, "timestamp": "2025-12-06T05:40:09.638843+00:00", "meta": {"OBJECT_NAME": "COSMOS 2251 DEB", "OBJECT_ID": "1993-036GV", "EPOCH": "2025-12-05T06:25:56.675712", "MEAN_MOTION": 15.16741979, "ECCENTRICITY": 0.00044589, "INCLINATION": 74.0005, "RA_OF_ASC_NODE": 298.9506, "ARG_OF_PERICENTER": 59.79, "MEAN_ANOMALY": 300.3737, "EPHEMERIS_TYPE": 0, "CLASSIFICATION_TYPE": "U", "NORAD_CAT_ID": 34010, "ELEMENT_SET_NO": 999, "REV_AT_EPOCH": 89172, "BSTAR": 0.0068904481, "MEAN_MOTION_DOT": 0.00137811, "MEAN_MOTION_DDOT": 0}, "tle": {"line1": "1 34010U 93036GV  25339.26801708  .00137811  00000+0  68904-2 0  9992", "line2": "2 34010  74.0005 298.9506 0004458  59.7900 300.3737 15.16741979891726"}}, "geometry": {"type": "Point", "coordinates": [147.5920194439166, -60.637640535215546]}}, {"type": "Feature", "properties": {"norad_id": 34011, "name": "COSMOS 2251 DEB", "group": "cosmos-2251-debris", "lat": -3.284298480655449, "lon": -18.723691293526112, "alt_km": 747.7448404748411, "timestamp": "2025-12-06T05:40:09.638854+00:00", "meta": {"OBJECT_NAME": "COSMOS 2251 DEB", "OBJECT_ID": "1993-036GW", "EPOCH": "2025-12-04T10:23:09.489408", "MEAN_MOTION": 14.41708458, "ECCENTRICITY": 0.0035219, "INCLINATION": 74.0144, "RA_OF_ASC_NODE": 345.5636, "ARG_OF_PERICENTER": 71.8792, "MEAN_ANOMALY": 288.6195, "EPHEMERIS_TYPE": 0, "CLASSIFICATION_TYPE": "U", "NORAD_CAT_ID": 34011, "ELEMENT_SET_NO": 999, "REV_AT_EPOCH": 87796, "BSTAR": 0.0015576, "MEAN_MOTION_DOT": 5.095e-05, "MEAN_MOTION_DDOT": 0}, "tle": {"line1": "1 34011U 93036GW  25338.43274872  .00005095  00000+0  15576-2 0  9992", "line2": "2 34011  74.0144 345.5636 0035219  71.8792 288.6195 14.41708458877965"}}, "geometry": {"type": "Point", "coordinates": [-18.723691293526112, -3.284298480655449]}}]}